{"type": "FeatureCollection", "features": [ {"type": "Feature", "properties": {"norad_id": 66797, "name": "STARLINK-36099", "group": "last-30-days", "lat": -42.67881768700511, "lon": 111.94340868768921, "alt_km": 371.7591632909043, "timestamp": "2025-12-19T14:48:34.964791+00:00", "meta": {"OBJECT_NAME": "STARLINK-36099", "OBJECT_ID": "2025-278G", "EPOCH": "2025-12-19T08:00:01.999872", "MEAN_MOTION": 15.67522772, "ECCENTRICITY": 0.00014832, "INCLINATION": 42.9992, "RA_OF_ASC_NODE": 211.929, "ARG_OF_PERICENTER": 272.6617, "MEAN_ANOMALY": 188.9221, "EPHEMERIS_TYPE": 0, "CLASSIFICATION_TYPE": "U", "NORAD_CAT_ID": 66797, "ELEMENT_SET_NO": 999, "REV_AT_EPOCH": 407, "BSTAR": -0.020307594, "MEAN_MOTION_DOT": -0.02000204, "MEAN_MOTION_DDOT": 0}, "tle": {"line1": "1 66797U 25278G   25353.33335648 -.02000204  00000+0 -20308-1 0  9995", "line2": "2 66797  42.9992 211.9290 0001483 272.6617 188.9221 15.67522772  4079"}}, "geometry": {"type": "Point", "coordinates": [111.94340868768921, -42.67881768700511]}}, {"type": "Feature", "properties": {"norad_id": 66798, "name": "STARLINK-36041", "group": "last-30-days", "lat": -42.837311156879, "lon": 114.53793719227349, "alt_km": 371.77924782585706, "timestamp": "2025-12-19T14:48:34.964801+00:00", "meta": {"OBJECT_NAME": "STARLINK-36041", "OBJECT_ID": "2025-278H", "EPOCH": "2025-12-19T08:00:01.999872", "MEAN_MOTION": 15.67527255, "ECCENTRICITY": 0.00014473, "INCLINATION": 42.9989, "RA_OF_ASC_NODE": 211.9238, "ARG_OF_PERICENTER": 271.8692, "MEAN_ANOMALY": 191.6292, "EPHEMERIS_TYPE": 0, "CLASSIFICATION_TYPE": "U", "NORAD_CAT_ID": 66798, "ELEMENT_SET_NO": 999, "REV_AT_EPOCH": 385, "BSTAR": -0.02036632, "MEAN_MOTION_DOT": -0.02005584, "MEAN_MOTION_DDOT": 0}, "tle": {"line1": "1 66798U 25278H   25353.33335648 -.02005584  00000+0 -20366-1 0  9996", "line2": "2 66798  42.9989 211.9238 0001447 271.8692 191.6292 15.67527255  3857"}}, "geometry": {"type": "Point", "coordinates": [114.53793719227349, -42.837311156879]}}, {"type": "Feature", "properties": {"norad_id": 66799, "name": "STARLINK-36044", "group": "last-30-days", "lat": -42.93698157644754, "lon": 117.14226943960423, "alt_km": 371.7565833596009, "timestamp": "2025-12-19T14:48:34.964811+00:00", "meta": {"OBJECT_NAME": "STARLINK-36044", "OBJECT_ID": "2025-278J", "EPOCH": "2025-12-19T08:00:01.999872", "MEAN_MOTION": 15.67523513, "ECCENTRICITY": 0.00014786, "INCLINATION": 42.9989, "RA_OF_ASC_NODE": 211.9192, "ARG_OF_PERICENTER": 272.3123, "MEAN_ANOMALY": 193.1042, "EPHEMERIS_TYPE": 0, "CLASSIFICATION_TYPE": "U", "NORAD_CAT_ID": 66799, "ELEMENT_SET_NO": 999, "REV_AT_EPOCH": 401, "BSTAR": -0.020289538, "MEAN_MOTION_DOT": -0.01998691, "MEAN_MOTION_DDOT": 0}, "tle": {"line1": "1 66799U 25278J   25353.33335648 -.01998691  00000+0 -20290-1 0  9992", "line2": "2 66799  42.9989 211.9192 0001478 272.3123 193.1042 15.67523513  4018"}}, "geometry": {"type": "Point", "coordinates": [117.14226943960423, -42.93698157644754]}}, {"type": "Feature", "properties": {"norad_id": 66800, "name": "STARLINK-35996", "group": "last-30-days", "lat": -42.95792004920757, "lon": 122.36542303622636, "alt_km": 371.76362499802053, "timestamp": "2025-12-19T14:48:34.964821+00:00", "meta": {"OBJECT_NAME": "STARLINK-35996", "OBJECT_ID": "2025-278K", "EPOCH": "2025-12-19T08:00:01.999872", "MEAN_MOTION": 15.67523815, "ECCENTRICITY": 0.00014657, "INCLINATION": 42.9989, "RA_OF_ASC_NODE": 211.9091, "ARG_OF_PERICENTER": 270.5593, "MEAN_ANOMALY": 198.6914, "EPHEMERIS_TYPE": 0, "CLASSIFICATION_TYPE": "U", "NORAD_CAT_ID": 66800, "ELEMENT_SET_NO": 999, "REV_AT_EPOCH": 380, "BSTAR": -0.020299659, "MEAN_MOTION_DOT": -0.01999579, "MEAN_MOTION_DDOT": 0}, "tle": {"line1": "1 66800U 25278K   25353.33335648 -.01999579  00000+0 -20300-1 0  9993", "line2": "2 66800  42.9989 211.9091 0001465 270.5593 198.6914 15.67523815  3805"}}, "geometry": {"type": "Point", "coordinates": [122.36542303622636, -42.95792004920757]}}, {"type": "Feature", "properties": {"norad_id": 66801, "name": "STARLINK-36080", "group": "last-30-days", "lat": -41.97826517125757, "lon": 135.26403251764566, "alt_km": 371.7972029758748, "timestamp": "2025-12-19T14:48:34.964831+00:00", "meta": {"OBJECT_NAME": "STARLINK-36080", "OBJECT_ID": "2025-278L", "EPOCH": "2025-12-19T08:00:01.999872", "MEAN_MOTION": 15.67526828, "ECCENTRICITY": 0.00014023, "INCLINATION": 42.9991, "RA_OF_ASC_NODE": 211.884, "ARG_OF_PERICENTER": 269.2785, "MEAN_ANOMALY": 209.5564, "EPHEMERIS_TYPE": 0, "CLASSIFICATION_TYPE": "U", "NORAD_CAT_ID": 66801, "ELEMENT_SET_NO": 999, "REV_AT_EPOCH": 401, "BSTAR": -0.020355587, "MEAN_MOTION_DOT": -0.02004588, "MEAN_MOTION_DDOT": 0}, "tle": {"line1": "1 66801U 25278L   25353.33335648 -.02004588  00000+0 -20356-1 0  9993", "line2": "2 66801  42.9991 211.8840 0001402 269.2785 209.5564 15.67526828  4013"}}, "geometry": {"type": "Point", "coordinates": [135.26403251764566, -41.97826517125757]}}, {"type": "Feature", "properties": {"norad_id": 66802, "name": "STARLINK-35604", "group": "last-30-days", "lat": -42.977747574282695, "lon": 119.75186895035459, "alt_km": 371.58588875052556, "timestamp": "2025-12-19T14:48:34.964843+00:00", "meta": {"OBJECT_NAME": "STARLINK-35604", "OBJECT_ID": "2025-278M", "EPOCH": "2025-12-19T06:00:02.000160", "MEAN_MOTION": 15.67851299, "ECCENTRICITY": 0.00018135, "INCLINATION": 42.9994, "RA_OF_ASC_NODE": 212.4158, "ARG_OF_PERICENTER": 268.7151, "MEAN_ANOMALY": 87.7546, "EPHEMERIS_TYPE": 0, "CLASSIFICATION_TYPE": "U", "NORAD_CAT_ID": 66802, "ELEMENT_SET_NO": 999, "REV_AT_EPOCH": 400, "BSTAR": -0.019418503, "MEAN_MOTION_DOT": -0.01946224, "MEAN_MOTION_DDOT": 0}, "tle": {"line1": "1 66802U 25278M   25353.25002315 -.01946224  00000+0 -19419-1 0  9996", "line2": "2 66802  42.9994 212.4158 0001813 268.7151  87.7546 15.67851299  4001"}}, "geometry": {"type": "Point", "coordinates": [119.75186895035459, -42.977747574282695]}}, {"type": "Feature", "properties": {"norad_id": 66803, "name": "STARLINK-35565", "group": "last-30-days", "lat": -42.87929348865244, "lon": 124.97325411158198, "alt_km": 371.5586468874526, "timestamp": "2025-12-19T14:48:34.964857+00:00", "meta": {"OBJECT_NAME": "STARLINK-35565", "OBJECT_ID": "2025-278N", "EPOCH": "2025-12-19T06:00:02.000160", "MEAN_MOTION": 15.67852389, "ECCENTRICITY": 0.00018434, "INCLINATION": 42.9991, "RA_OF_ASC_NODE": 212.4055, "ARG_OF_PERICENTER": 266.6372, "MEAN_ANOMALY": 93.6647, "EPHEMERIS_TYPE": 0, "CLASSIFICATION_TYPE": "U", "NORAD_CAT_ID": 66803, "ELEMENT_SET_NO": 999, "REV_AT_EPOCH": 409, "BSTAR": -0.019396231, "MEAN_MOTION_DOT": -0.01944354, "MEAN_MOTION_DDOT": 0}, "tle": {"line1": "1 66803U 25278N   25353.25002315 -.01944354  00000+0 -19396-1 0  9993", "line2": "2 66803  42.9991 212.4055 0001843 266.6372  93.6647 15.67852389  4098"}}, "geometry": {"type": "Point", "coordinates": [124.97325411158198, -42.87929348865244]}}, {"type": "Feature", "properties": {"norad_id": 66804, "name": "STARLINK-36038", "group": "last-30-days", "lat": -42.741559543835514, "lon": 127.570383666969, "alt_km": 371.55954622072295, "timestamp": "2025-12-19T14:48:34.964868+00:00", "meta": {"OBJECT_NAME": "STARLINK-36038", "OBJECT_ID": "2025-278P", "EPOCH": "2025-12-19T06:00:02.000160", "MEAN_MOTION": 15.67855024, "ECCENTRICITY": 0.0001849, "INCLINATION": 42.9993, "RA_OF_ASC_NODE": 212.4011, "ARG_OF_PERICENTER": 267.733, "MEAN_ANOMALY": 94.4855, "EPHEMERIS_TYPE": 0, "CLASSIFICATION_TYPE": "U", "NORAD_CAT_ID": 66804, "ELEMENT_SET_NO": 999, "REV_AT_EPOCH": 400, "BSTAR": -0.019467768, "MEAN_MOTION_DOT": -0.01950878, "MEAN_MOTION_DDOT": 0}, "tle": {"line1": "1 66804U 25278P   25353.25002315 -.01950878  00000+0 -19468-1 0  9992", "line2": "2 66804  42.9993 212.4011 0001849 267.7330  94.4855 15.67855024  4005"}}, "geometry": {"type": "Point", "coordinates": [127.570383666969, -42.741559543835514]}}, {"type": "Feature", "properties": {"norad_id": 66805, "name": "STARLINK-36049", "group": "last-30-days", "lat": -42.29022957336098, "lon": 132.72098644175145, "alt_km": 371.52944378533994, "timestamp": "2025-12-19T14:48:34.964878+00:00", "meta": {"OBJECT_NAME": "STARLINK-36049", "OBJECT_ID": "2025-278Q", "EPOCH": "2025-12-19T06:00:02.000160", "MEAN_MOTION": 15.67852706, "ECCENTRICITY": 0.00018702, "INCLINATION": 42.9993, "RA_OF_ASC_NODE": 212.3908, "ARG_OF_PERICENTER": 268.1565, "MEAN_ANOMALY": 97.896, "EPHEMERIS_TYPE": 0, "CLASSIFICATION_TYPE": "U", "NORAD_CAT_ID": 66805, "ELEMENT_SET_NO": 999, "REV_AT_EPOCH": 400, "BSTAR": -0.01939726, "MEAN_MOTION_DOT": -0.01944488, "MEAN_MOTION_DDOT": 0}, "tle": {"line1": "1 66805U 25278Q   25353.25002315 -.01944488  00000+0 -19397-1 0  9994", "line2": "2 66805  42.9993 212.3908 0001870 268.1565  97.8960 15.67852706  4007"}}, "geometry": {"type": "Point", "coordinates": [132.72098644175145, -42.29022957336098]}}, {"type": "Feature", "properties": {"norad_id": 66806, "name": "STARLINK-36069", "group": "last-30-days", "lat": -42.54477672664335, "lon": 130.15455628886681, "alt_km": 371.55688494818423, "timestamp": "2025-12-19T14:48:34.964887+00:00", "meta": {"OBJECT_NAME": "STARLINK-36069", "OBJECT_ID": "2025-278R", "EPOCH": "2025-12-19T06:00:02.000160", "MEAN_MOTION": 15.67854926, "ECCENTRICITY": 0.00018441, "INCLINATION": 42.9992, "RA_OF_ASC_NODE": 212.3958, "ARG_OF_PERICENTER": 268.6675, "MEAN_ANOMALY": 95.4684, "EPHEMERIS_TYPE": 0, "CLASSIFICATION_TYPE": "U", "NORAD_CAT_ID": 66806, "ELEMENT_SET_NO": 999, "REV_AT_EPOCH": 379, "BSTAR": -0.019463293, "MEAN_MOTION_DOT": -0.01950471, "MEAN_MOTION_DDOT": 0}, "tle": {"line1": "1 66806U 25278R   25353.25002315 -.01950471  00000+0 -19463-1 0  9998", "line2": "2 66806  42.9992 212.3958 0001844 268.6675  95.4684 15.67854926  3798"}}, "geometry": {"type": "Point", "coordinates": [130.15455628886681, -42.54477672664335]}}]}